CCSDS_OMM_VERS = 2.0
CREATION_DATE  = 
ORIGINATOR     = 

OBJECT_NAME    = CZ-2C R/B
OBJECT_ID      = 2022-132E
CENTER_NAME    = EARTH
REF_FRAME      = TEME
TIME_SYSTEM    = UTC
MEAN_ELEMENT_THEORY = SGP/SGP4

EPOCH          = 2025-12-22T13:55:35.561280
MEAN_MOTION    = 15.55383196
ECCENTRICITY   = .00215598
INCLINATION    = 97.2942
RA_OF_ASC_NODE = 352.9705
ARG_OF_PERICENTER = 23.8287
MEAN_ANOMALY   = 336.3960

EPHEMERIS_TYPE = 0
CLASSIFICATION_TYPE = U
NORAD_CAT_ID   = 54039
ELEMENT_SET_NO = 999
REV_AT_EPOCH   = 17836
BSTAR          = .44444476E-3
MEAN_MOTION_DOT = .30494E-3
MEAN_MOTION_DDOT = 0

CCSDS_OMM_VERS = 2.0
CREATION_DATE  = 
ORIGINATOR     = 

OBJECT_NAME    = GSLV R/B
OBJECT_ID      = 2022-138AN
CENTER_NAME    = EARTH
REF_FRAME      = TEME
TIME_SYSTEM    = UTC
MEAN_ELEMENT_THEORY = SGP/SGP4

EPOCH          = 2025-12-22T19:42:44.863776
MEAN_MOTION    = 14.96177270
ECCENTRICITY   = .00241429
INCLINATION    = 87.3819
RA_OF_ASC_NODE = 192.0973
ARG_OF_PERICENTER = 72.6937
MEAN_ANOMALY   = 287.6932

EPHEMERIS_TYPE = 0
CLASSIFICATION_TYPE = U
NORAD_CAT_ID   = 54149
ELEMENT_SET_NO = 999
REV_AT_EPOCH   = 17243
BSTAR          = .25043997E-3
MEAN_MOTION_DOT = .2865E-4
MEAN_MOTION_DDOT = 0

CCSDS_OMM_VERS = 2.0
CREATION_DATE  = 
ORIGINATOR     = 

OBJECT_NAME    = XRISM
OBJECT_ID      = 2023-137A
CENTER_NAME    = EARTH
REF_FRAME      = TEME
TIME_SYSTEM    = UTC
MEAN_ELEMENT_THEORY = SGP/SGP4

EPOCH          = 2025-12-22T21:06:10.551456
MEAN_MOTION    = 15.10432083
ECCENTRICITY   = .00076651
INCLINATION    = 31.0029
RA_OF_ASC_NODE = 60.0750
ARG_OF_PERICENTER = 347.0098
MEAN_ANOMALY   = 13.0342

EPHEMERIS_TYPE = 0
CLASSIFICATION_TYPE = U
NORAD_CAT_ID   = 57800
ELEMENT_SET_NO = 999
REV_AT_EPOCH   = 12616
BSTAR          = .35939083E-3
MEAN_MOTION_DOT = .6155E-4
MEAN_MOTION_DDOT = 0

CCSDS_OMM_VERS = 2.0
CREATION_DATE  = 
ORIGINATOR     = 

OBJECT_NAME    = ACS3
OBJECT_ID      = 2024-077B
CENTER_NAME    = EARTH
REF_FRAME      = TEME
TIME_SYSTEM    = UTC
MEAN_ELEMENT_THEORY = SGP/SGP4

EPOCH          = 2025-12-22T20:42:14.864256
MEAN_MOTION    = 13.85930789
ECCENTRICITY   = .00753167
INCLINATION    = 97.2618
RA_OF_ASC_NODE = 310.2070
ARG_OF_PERICENTER = 313.4504
MEAN_ANOMALY   = 46.0408

EPHEMERIS_TYPE = 0
CLASSIFICATION_TYPE = U
NORAD_CAT_ID   = 59588
ELEMENT_SET_NO = 999
REV_AT_EPOCH   = 8354
BSTAR          = .20305512E-1
MEAN_MOTION_DOT = .23893E-3
MEAN_MOTION_DDOT = 0

CCSDS_OMM_VERS = 2.0
CREATION_DATE  = 
ORIGINATOR     = 

OBJECT_NAME    = SZ-21 MODULE
OBJECT_ID      = 2025-246C
CENTER_NAME    = EARTH
REF_FRAME      = TEME
TIME_SYSTEM    = UTC
MEAN_ELEMENT_THEORY = SGP/SGP4

EPOCH          = 2025-12-22T06:04:32.826144
MEAN_MOTION    = 15.62957896
ECCENTRICITY   = .00052091
INCLINATION    = 41.4776
RA_OF_ASC_NODE = 317.9924
ARG_OF_PERICENTER = 311.1717
MEAN_ANOMALY   = 48.8673

EPHEMERIS_TYPE = 0
CLASSIFICATION_TYPE = U
NORAD_CAT_ID   = 66515
ELEMENT_SET_NO = 999
REV_AT_EPOCH   = 593
BSTAR          = .31521047E-3
MEAN_MOTION_DOT = .29176E-3
MEAN_MOTION_DDOT = 0

